{"fetched_at":"2026-07-23T07:06:01.085Z","source":"https://celestrak.org/NORAD/elements/gp.php?NAME=SENTINEL&FORMAT=JSON","constellation":"sentinel-2","records":[{"OBJECT_NAME":"SENTINEL-2A","OBJECT_ID":"2015-028A","EPOCH":"2026-07-22T22:46:31.559232","CLASSIFICATION_TYPE":"U","MEAN_MOTION":14.30815589,"ECCENTRICITY":0.00013421,"INCLINATION":98.5669,"RA_OF_ASC_NODE":278.2905,"ARG_OF_PERICENTER":96.8654,"MEAN_ANOMALY":263.2682,"EPHEMERIS_TYPE":0,"NORAD_CAT_ID":40697,"ELEMENT_SET_NO":999,"REV_AT_EPOCH":57884,"BSTAR":0.000008288481,"MEAN_MOTION_DOT":-2.2e-7,"MEAN_MOTION_DDOT":0},{"OBJECT_NAME":"SENTINEL-2B","OBJECT_ID":"2017-013A","EPOCH":"2026-07-22T22:36:10.082304","CLASSIFICATION_TYPE":"U","MEAN_MOTION":14.30816024,"ECCENTRICITY":0.00012374,"INCLINATION":98.5676,"RA_OF_ASC_NODE":278.2091,"ARG_OF_PERICENTER":93.1168,"MEAN_ANOMALY":267.0157,"EPHEMERIS_TYPE":0,"NORAD_CAT_ID":42063,"ELEMENT_SET_NO":999,"REV_AT_EPOCH":48975,"BSTAR":-0.000022256618,"MEAN_MOTION_DOT":-0.00000102,"MEAN_MOTION_DDOT":0},{"OBJECT_NAME":"SENTINEL-2C","OBJECT_ID":"2024-157A","EPOCH":"2026-07-22T16:43:44.362272","CLASSIFICATION_TYPE":"U","MEAN_MOTION":14.30817204,"ECCENTRICITY":0.00010376,"INCLINATION":98.5678,"RA_OF_ASC_NODE":277.9742,"ARG_OF_PERICENTER":108.5702,"MEAN_ANOMALY":251.5594,"EPHEMERIS_TYPE":0,"NORAD_CAT_ID":60989,"ELEMENT_SET_NO":999,"REV_AT_EPOCH":9806,"BSTAR":0.000038607079,"MEAN_MOTION_DOT":5.8e-7,"MEAN_MOTION_DDOT":0}]}
